{
  "type": "FeatureCollection",
  "features": [
    {
      "type": "Feature",
      "properties": {
        "poi_id": "POI001",
        "poi_name": "Chợ Cồn",
        "category": "MARKET",
        "analysis_zone": "Hải Châu core",
        "parking_demand_weight": 1.45,
        "data_status": "REAL_NAME_APPROX_COORD"
      },
      "geometry": {
        "type": "Point",
        "coordinates": [
          108.2132,
          16.0687
        ]
      }
    },
    {
      "type": "Feature",
      "properties": {
        "poi_id": "POI002",
        "poi_name": "Chợ Hàn",
        "category": "MARKET",
        "analysis_zone": "Hải Châu core",
        "parking_demand_weight": 1.35,
        "data_status": "REAL_NAME_APPROX_COORD"
      },
      "geometry": {
        "type": "Point",
        "coordinates": [
          108.224,
          16.0682
        ]
      }
    },
    {
      "type": "Feature",
      "properties": {
        "poi_id": "POI003",
        "poi_name": "Bệnh viện Đà Nẵng",
        "category": "HOSPITAL",
        "analysis_zone": "Hải Châu core",
        "parking_demand_weight": 1.5,
        "data_status": "REAL_NAME_APPROX_COORD"
      },
      "geometry": {
        "type": "Point",
        "coordinates": [
          108.2168,
          16.075
        ]
      }
    },
    {
      "type": "Feature",
      "properties": {
        "poi_id": "POI004",
        "poi_name": "Bệnh viện C Đà Nẵng",
        "category": "HOSPITAL",
        "analysis_zone": "Hải Châu core",
        "parking_demand_weight": 1.25,
        "data_status": "REAL_NAME_APPROX_COORD"
      },
      "geometry": {
        "type": "Point",
        "coordinates": [
          108.2145,
          16.073
        ]
      }
    },
    {
      "type": "Feature",
      "properties": {
        "poi_id": "POI005",
        "poi_name": "Bệnh viện Hoàn Mỹ Đà Nẵng",
        "category": "HOSPITAL",
        "analysis_zone": "Thanh Khê core",
        "parking_demand_weight": 1.15,
        "data_status": "REAL_NAME_APPROX_COORD"
      },
      "geometry": {
        "type": "Point",
        "coordinates": [
          108.2055,
          16.059
        ]
      }
    },
    {
      "type": "Feature",
      "properties": {
        "poi_id": "POI006",
        "poi_name": "Sân bay quốc tế Đà Nẵng",
        "category": "AIRPORT",
        "analysis_zone": "Hải Châu core",
        "parking_demand_weight": 1.6,
        "data_status": "REAL_NAME_APPROX_COORD"
      },
      "geometry": {
        "type": "Point",
        "coordinates": [
          108.1994,
          16.0439
        ]
      }
    },
    {
      "type": "Feature",
      "properties": {
        "poi_id": "POI007",
        "poi_name": "Ga Đà Nẵng",
        "category": "RAILWAY_STATION",
        "analysis_zone": "Thanh Khê core",
        "parking_demand_weight": 1.3,
        "data_status": "REAL_NAME_APPROX_COORD"
      },
      "geometry": {
        "type": "Point",
        "coordinates": [
          108.209,
          16.0719
        ]
      }
    },
    {
      "type": "Feature",
      "properties": {
        "poi_id": "POI008",
        "poi_name": "Đại học Đà Nẵng",
        "category": "UNIVERSITY",
        "analysis_zone": "Hải Châu core",
        "parking_demand_weight": 1.2,
        "data_status": "REAL_NAME_APPROX_COORD"
      },
      "geometry": {
        "type": "Point",
        "coordinates": [
          108.2182,
          16.0722
        ]
      }
    },
    {
      "type": "Feature",
      "properties": {
        "poi_id": "POI009",
        "poi_name": "Đại học Duy Tân - Nguyễn Văn Linh",
        "category": "UNIVERSITY",
        "analysis_zone": "Hải Châu core",
        "parking_demand_weight": 1.2,
        "data_status": "REAL_NAME_APPROX_COORD"
      },
      "geometry": {
        "type": "Point",
        "coordinates": [
          108.2095,
          16.06
        ]
      }
    },
    {
      "type": "Feature",
      "properties": {
        "poi_id": "POI010",
        "poi_name": "Trường Đại học Bách khoa - ĐH Đà Nẵng",
        "category": "UNIVERSITY",
        "analysis_zone": "Liên Chiểu core",
        "parking_demand_weight": 1.35,
        "data_status": "REAL_NAME_APPROX_COORD"
      },
      "geometry": {
        "type": "Point",
        "coordinates": [
          108.1535,
          16.0749
        ]
      }
    },
    {
      "type": "Feature",
      "properties": {
        "poi_id": "POI011",
        "poi_name": "Vincom Plaza Đà Nẵng",
        "category": "SHOPPING_MALL",
        "analysis_zone": "Sơn Trà core",
        "parking_demand_weight": 1.35,
        "data_status": "REAL_NAME_APPROX_COORD"
      },
      "geometry": {
        "type": "Point",
        "coordinates": [
          108.23,
          16.0717
        ]
      }
    },
    {
      "type": "Feature",
      "properties": {
        "poi_id": "POI012",
        "poi_name": "GO! Đà Nẵng",
        "category": "SHOPPING_MALL",
        "analysis_zone": "Hải Châu core",
        "parking_demand_weight": 1.35,
        "data_status": "REAL_NAME_APPROX_COORD"
      },
      "geometry": {
        "type": "Point",
        "coordinates": [
          108.214,
          16.0675
        ]
      }
    },
    {
      "type": "Feature",
      "properties": {
        "poi_id": "POI013",
        "poi_name": "Lotte Mart Đà Nẵng",
        "category": "SHOPPING_MALL",
        "analysis_zone": "Hải Châu core",
        "parking_demand_weight": 1.3,
        "data_status": "REAL_NAME_APPROX_COORD"
      },
      "geometry": {
        "type": "Point",
        "coordinates": [
          108.227,
          16.0385
        ]
      }
    },
    {
      "type": "Feature",
      "properties": {
        "poi_id": "POI014",
        "poi_name": "Indochina Riverside Mall",
        "category": "SHOPPING_MALL",
        "analysis_zone": "Hải Châu core",
        "parking_demand_weight": 1.15,
        "data_status": "REAL_NAME_APPROX_COORD"
      },
      "geometry": {
        "type": "Point",
        "coordinates": [
          108.2246,
          16.0698
        ]
      }
    },
    {
      "type": "Feature",
      "properties": {
        "poi_id": "POI015",
        "poi_name": "Trung tâm Hành chính Đà Nẵng",
        "category": "GOVERNMENT",
        "analysis_zone": "Hải Châu core",
        "parking_demand_weight": 1.25,
        "data_status": "REAL_NAME_APPROX_COORD"
      },
      "geometry": {
        "type": "Point",
        "coordinates": [
          108.222,
          16.0755
        ]
      }
    },
    {
      "type": "Feature",
      "properties": {
        "poi_id": "POI016",
        "poi_name": "Bảo tàng Điêu khắc Chăm Đà Nẵng",
        "category": "TOURISM",
        "analysis_zone": "Hải Châu core",
        "parking_demand_weight": 1.05,
        "data_status": "REAL_NAME_APPROX_COORD"
      },
      "geometry": {
        "type": "Point",
        "coordinates": [
          108.223,
          16.0599
        ]
      }
    },
    {
      "type": "Feature",
      "properties": {
        "poi_id": "POI017",
        "poi_name": "Cầu Rồng",
        "category": "TOURISM",
        "analysis_zone": "Hải Châu-Sơn Trà",
        "parking_demand_weight": 1.3,
        "data_status": "REAL_NAME_APPROX_COORD"
      },
      "geometry": {
        "type": "Point",
        "coordinates": [
          108.2279,
          16.0611
        ]
      }
    },
    {
      "type": "Feature",
      "properties": {
        "poi_id": "POI018",
        "poi_name": "Công viên Biển Đông",
        "category": "PARK_TOURISM",
        "analysis_zone": "Sơn Trà-Ngũ Hành Sơn coast",
        "parking_demand_weight": 1.3,
        "data_status": "REAL_NAME_APPROX_COORD"
      },
      "geometry": {
        "type": "Point",
        "coordinates": [
          108.2468,
          16.0696
        ]
      }
    },
    {
      "type": "Feature",
      "properties": {
        "poi_id": "POI019",
        "poi_name": "Bãi biển Mỹ Khê",
        "category": "BEACH",
        "analysis_zone": "Sơn Trà-Ngũ Hành Sơn coast",
        "parking_demand_weight": 1.5,
        "data_status": "REAL_NAME_APPROX_COORD"
      },
      "geometry": {
        "type": "Point",
        "coordinates": [
          108.2475,
          16.056
        ]
      }
    },
    {
      "type": "Feature",
      "properties": {
        "poi_id": "POI020",
        "poi_name": "Công viên 29/3",
        "category": "PARK",
        "analysis_zone": "Thanh Khê core",
        "parking_demand_weight": 1.05,
        "data_status": "REAL_NAME_APPROX_COORD"
      },
      "geometry": {
        "type": "Point",
        "coordinates": [
          108.2035,
          16.0605
        ]
      }
    },
    {
      "type": "Feature",
      "properties": {
        "poi_id": "POI021",
        "poi_name": "Công viên APEC",
        "category": "PARK_TOURISM",
        "analysis_zone": "Hải Châu core",
        "parking_demand_weight": 1.1,
        "data_status": "REAL_NAME_APPROX_COORD"
      },
      "geometry": {
        "type": "Point",
        "coordinates": [
          108.2237,
          16.0547
        ]
      }
    },
    {
      "type": "Feature",
      "properties": {
        "poi_id": "POI022",
        "poi_name": "Cung Thiếu nhi Đà Nẵng",
        "category": "CULTURE",
        "analysis_zone": "Hải Châu core",
        "parking_demand_weight": 1.05,
        "data_status": "REAL_NAME_APPROX_COORD"
      },
      "geometry": {
        "type": "Point",
        "coordinates": [
          108.223,
          16.0405
        ]
      }
    },
    {
      "type": "Feature",
      "properties": {
        "poi_id": "POI023",
        "poi_name": "Bệnh viện Vinmec Đà Nẵng",
        "category": "HOSPITAL",
        "analysis_zone": "Hải Châu core",
        "parking_demand_weight": 1.15,
        "data_status": "REAL_NAME_APPROX_COORD"
      },
      "geometry": {
        "type": "Point",
        "coordinates": [
          108.222,
          16.035
        ]
      }
    },
    {
      "type": "Feature",
      "properties": {
        "poi_id": "POI024",
        "poi_name": "Family Hospital Đà Nẵng",
        "category": "HOSPITAL",
        "analysis_zone": "Hải Châu core",
        "parking_demand_weight": 1.1,
        "data_status": "REAL_NAME_APPROX_COORD"
      },
      "geometry": {
        "type": "Point",
        "coordinates": [
          108.2075,
          16.05
        ]
      }
    },
    {
      "type": "Feature",
      "properties": {
        "poi_id": "POI025",
        "poi_name": "Government_Service mô phỏng 1",
        "category": "GOVERNMENT_SERVICE",
        "analysis_zone": "Sơn Trà-Ngũ Hành Sơn coast",
        "parking_demand_weight": 1.0,
        "data_status": "SYNTHETIC"
      },
      "geometry": {
        "type": "Point",
        "coordinates": [
          108.248092,
          16.04569
        ]
      }
    },
    {
      "type": "Feature",
      "properties": {
        "poi_id": "POI026",
        "poi_name": "Office mô phỏng 2",
        "category": "OFFICE",
        "analysis_zone": "Cẩm Lệ core",
        "parking_demand_weight": 1.13,
        "data_status": "SYNTHETIC"
      },
      "geometry": {
        "type": "Point",
        "coordinates": [
          108.204833,
          16.037098
        ]
      }
    },
    {
      "type": "Feature",
      "properties": {
        "poi_id": "POI027",
        "poi_name": "Government_Service mô phỏng 3",
        "category": "GOVERNMENT_SERVICE",
        "analysis_zone": "Hải Châu core",
        "parking_demand_weight": 1.01,
        "data_status": "SYNTHETIC"
      },
      "geometry": {
        "type": "Point",
        "coordinates": [
          108.21003,
          16.063262
        ]
      }
    },
    {
      "type": "Feature",
      "properties": {
        "poi_id": "POI028",
        "poi_name": "Retail mô phỏng 4",
        "category": "RETAIL",
        "analysis_zone": "Hải Châu core",
        "parking_demand_weight": 0.95,
        "data_status": "SYNTHETIC"
      },
      "geometry": {
        "type": "Point",
        "coordinates": [
          108.211862,
          16.064118
        ]
      }
    },
    {
      "type": "Feature",
      "properties": {
        "poi_id": "POI029",
        "poi_name": "School mô phỏng 5",
        "category": "SCHOOL",
        "analysis_zone": "Hải Châu core",
        "parking_demand_weight": 0.91,
        "data_status": "SYNTHETIC"
      },
      "geometry": {
        "type": "Point",
        "coordinates": [
          108.216753,
          16.069804
        ]
      }
    },
    {
      "type": "Feature",
      "properties": {
        "poi_id": "POI030",
        "poi_name": "Office mô phỏng 6",
        "category": "OFFICE",
        "analysis_zone": "Hải Châu core",
        "parking_demand_weight": 0.94,
        "data_status": "SYNTHETIC"
      },
      "geometry": {
        "type": "Point",
        "coordinates": [
          108.215646,
          16.03798
        ]
      }
    },
    {
      "type": "Feature",
      "properties": {
        "poi_id": "POI031",
        "poi_name": "Government_Service mô phỏng 7",
        "category": "GOVERNMENT_SERVICE",
        "analysis_zone": "Cẩm Lệ core",
        "parking_demand_weight": 1.08,
        "data_status": "SYNTHETIC"
      },
      "geometry": {
        "type": "Point",
        "coordinates": [
          108.210123,
          16.013194
        ]
      }
    },
    {
      "type": "Feature",
      "properties": {
        "poi_id": "POI032",
        "poi_name": "School mô phỏng 8",
        "category": "SCHOOL",
        "analysis_zone": "Hải Châu core",
        "parking_demand_weight": 0.85,
        "data_status": "SYNTHETIC"
      },
      "geometry": {
        "type": "Point",
        "coordinates": [
          108.227049,
          16.059716
        ]
      }
    },
    {
      "type": "Feature",
      "properties": {
        "poi_id": "POI033",
        "poi_name": "School mô phỏng 9",
        "category": "SCHOOL",
        "analysis_zone": "Thanh Khê core",
        "parking_demand_weight": 1.1,
        "data_status": "SYNTHETIC"
      },
      "geometry": {
        "type": "Point",
        "coordinates": [
          108.202457,
          16.075109
        ]
      }
    },
    {
      "type": "Feature",
      "properties": {
        "poi_id": "POI034",
        "poi_name": "Retail mô phỏng 10",
        "category": "RETAIL",
        "analysis_zone": "Hải Châu core",
        "parking_demand_weight": 1.0,
        "data_status": "SYNTHETIC"
      },
      "geometry": {
        "type": "Point",
        "coordinates": [
          108.222609,
          16.030499
        ]
      }
    },
    {
      "type": "Feature",
      "properties": {
        "poi_id": "POI035",
        "poi_name": "Restaurant_Cluster mô phỏng 11",
        "category": "RESTAURANT_CLUSTER",
        "analysis_zone": "Hải Châu core",
        "parking_demand_weight": 1.08,
        "data_status": "SYNTHETIC"
      },
      "geometry": {
        "type": "Point",
        "coordinates": [
          108.222137,
          16.071215
        ]
      }
    },
    {
      "type": "Feature",
      "properties": {
        "poi_id": "POI036",
        "poi_name": "Retail mô phỏng 12",
        "category": "RETAIL",
        "analysis_zone": "Cẩm Lệ core",
        "parking_demand_weight": 1.21,
        "data_status": "SYNTHETIC"
      },
      "geometry": {
        "type": "Point",
        "coordinates": [
          108.205163,
          16.020707
        ]
      }
    },
    {
      "type": "Feature",
      "properties": {
        "poi_id": "POI037",
        "poi_name": "School mô phỏng 13",
        "category": "SCHOOL",
        "analysis_zone": "Hải Châu core",
        "parking_demand_weight": 1.0,
        "data_status": "SYNTHETIC"
      },
      "geometry": {
        "type": "Point",
        "coordinates": [
          108.223176,
          16.036364
        ]
      }
    },
    {
      "type": "Feature",
      "properties": {
        "poi_id": "POI038",
        "poi_name": "Office mô phỏng 14",
        "category": "OFFICE",
        "analysis_zone": "Thanh Khê-Liên Chiểu coast",
        "parking_demand_weight": 1.12,
        "data_status": "SYNTHETIC"
      },
      "geometry": {
        "type": "Point",
        "coordinates": [
          108.170984,
          16.087105
        ]
      }
    },
    {
      "type": "Feature",
      "properties": {
        "poi_id": "POI039",
        "poi_name": "Hotel mô phỏng 15",
        "category": "HOTEL",
        "analysis_zone": "Hải Châu core",
        "parking_demand_weight": 0.89,
        "data_status": "SYNTHETIC"
      },
      "geometry": {
        "type": "Point",
        "coordinates": [
          108.216298,
          16.035805
        ]
      }
    },
    {
      "type": "Feature",
      "properties": {
        "poi_id": "POI040",
        "poi_name": "Hotel mô phỏng 16",
        "category": "HOTEL",
        "analysis_zone": "Sơn Trà core",
        "parking_demand_weight": 0.91,
        "data_status": "SYNTHETIC"
      },
      "geometry": {
        "type": "Point",
        "coordinates": [
          108.227462,
          16.073069
        ]
      }
    },
    {
      "type": "Feature",
      "properties": {
        "poi_id": "POI041",
        "poi_name": "Hotel mô phỏng 17",
        "category": "HOTEL",
        "analysis_zone": "Sơn Trà core",
        "parking_demand_weight": 1.09,
        "data_status": "SYNTHETIC"
      },
      "geometry": {
        "type": "Point",
        "coordinates": [
          108.240692,
          16.05885
        ]
      }
    },
    {
      "type": "Feature",
      "properties": {
        "poi_id": "POI042",
        "poi_name": "Office mô phỏng 18",
        "category": "OFFICE",
        "analysis_zone": "Hải Châu core",
        "parking_demand_weight": 1.12,
        "data_status": "SYNTHETIC"
      },
      "geometry": {
        "type": "Point",
        "coordinates": [
          108.226044,
          16.052783
        ]
      }
    },
    {
      "type": "Feature",
      "properties": {
        "poi_id": "POI043",
        "poi_name": "Retail mô phỏng 19",
        "category": "RETAIL",
        "analysis_zone": "Thanh Khê core",
        "parking_demand_weight": 0.98,
        "data_status": "SYNTHETIC"
      },
      "geometry": {
        "type": "Point",
        "coordinates": [
          108.202794,
          16.051475
        ]
      }
    },
    {
      "type": "Feature",
      "properties": {
        "poi_id": "POI044",
        "poi_name": "Government_Service mô phỏng 20",
        "category": "GOVERNMENT_SERVICE",
        "analysis_zone": "Liên Chiểu core",
        "parking_demand_weight": 0.96,
        "data_status": "SYNTHETIC"
      },
      "geometry": {
        "type": "Point",
        "coordinates": [
          108.153294,
          16.076676
        ]
      }
    },
    {
      "type": "Feature",
      "properties": {
        "poi_id": "POI045",
        "poi_name": "Government_Service mô phỏng 21",
        "category": "GOVERNMENT_SERVICE",
        "analysis_zone": "Sơn Trà-Ngũ Hành Sơn coast",
        "parking_demand_weight": 0.85,
        "data_status": "SYNTHETIC"
      },
      "geometry": {
        "type": "Point",
        "coordinates": [
          108.247629,
          16.054628
        ]
      }
    },
    {
      "type": "Feature",
      "properties": {
        "poi_id": "POI046",
        "poi_name": "Restaurant_Cluster mô phỏng 22",
        "category": "RESTAURANT_CLUSTER",
        "analysis_zone": "Hải Châu core",
        "parking_demand_weight": 1.09,
        "data_status": "SYNTHETIC"
      },
      "geometry": {
        "type": "Point",
        "coordinates": [
          108.211943,
          16.053408
        ]
      }
    },
    {
      "type": "Feature",
      "properties": {
        "poi_id": "POI047",
        "poi_name": "Government_Service mô phỏng 23",
        "category": "GOVERNMENT_SERVICE",
        "analysis_zone": "Liên Chiểu core",
        "parking_demand_weight": 0.85,
        "data_status": "SYNTHETIC"
      },
      "geometry": {
        "type": "Point",
        "coordinates": [
          108.16742,
          16.071596
        ]
      }
    },
    {
      "type": "Feature",
      "properties": {
        "poi_id": "POI048",
        "poi_name": "Retail mô phỏng 24",
        "category": "RETAIL",
        "analysis_zone": "Hải Châu core",
        "parking_demand_weight": 1.15,
        "data_status": "SYNTHETIC"
      },
      "geometry": {
        "type": "Point",
        "coordinates": [
          108.216147,
          16.073686
        ]
      }
    },
    {
      "type": "Feature",
      "properties": {
        "poi_id": "POI049",
        "poi_name": "School mô phỏng 25",
        "category": "SCHOOL",
        "analysis_zone": "Hải Châu core",
        "parking_demand_weight": 0.85,
        "data_status": "SYNTHETIC"
      },
      "geometry": {
        "type": "Point",
        "coordinates": [
          108.207234,
          16.050822
        ]
      }
    },
    {
      "type": "Feature",
      "properties": {
        "poi_id": "POI050",
        "poi_name": "Hotel mô phỏng 26",
        "category": "HOTEL",
        "analysis_zone": "Thanh Khê core",
        "parking_demand_weight": 1.08,
        "data_status": "SYNTHETIC"
      },
      "geometry": {
        "type": "Point",
        "coordinates": [
          108.206004,
          16.075748
        ]
      }
    }
  ]
}